{"fetched_at":"2026-04-18T08:45:53Z","count":1271,"tles":[{"name":"SL-8 R/B","line1":"1 21088U 91006B   26107.12207649  .00000146  00000+0  13155-3 0  9990","line2":"2 21088  82.9411 141.4671 0020972 288.6639 134.5611 13.77501755769365","category":"Other"},{"name":"INTERCOSMOS 25","line1":"1 21819U 91086A   26106.95680758  .00000856  00000+0  16292-3 0  9999","line2":"2 21819  82.5991 286.8654 1485876  34.4682 334.4263 12.12117391501326","category":"Other"},{"name":"ERS-1","line1":"1 21574U 91050A   26107.06699152  .00000173  00000+0  70029-4 0  9990","line2":"2 21574  98.7846 126.2616 0033141  88.6979 271.8005 14.39478181821253","category":"Other"},{"name":"COSMOS 2084","line1":"1 20663U 90055A   26107.30582488  .00001360  00000+0  10699-3 0  9997","line2":"2 20663  62.7891 203.8457 0010977 205.0184 155.0386 15.05873162942130","category":"Other"},{"name":"SL-6 R/B(2)","line1":"1 20666U 90055D   26107.14232046  .00001031  00000+0  88730-4 0  9991","line2":"2 20666  62.7805 123.0673 0031054 355.2562   4.8238 15.03764781943972","category":"Other"},{"name":"SL-8 R/B","line1":"1 21876U 92008B   26106.66996542  .00000005  00000+0 -10373-4 0  9998","line2":"2 21876  82.9264 239.5217 0035197  30.6728 340.3263 13.75970147714644","category":"Other"},{"name":"ARIANE 40 R/B","line1":"1 21610U 91050F   26107.09603375  .00000154  00000+0  58472-4 0  9993","line2":"2 21610  98.1938 157.8761 0002276 340.7491  19.3613 14.42920774824535","category":"Other"},{"name":"SL-8 R/B","line1":"1 21938U 92020B   26107.17311978 -.00000039  00000+0 -56556-4 0  9993","line2":"2 21938  82.9274 125.1815 0028828 187.5589 242.8000 13.75549523706420","category":"Other"},{"name":"OKEAN-3","line1":"1 21397U 91039A   26106.97751964  .00001230  00000+0  84540-4 0  9997","line2":"2 21397  82.5136 299.7350 0013929 193.9717 166.1127 15.05018163870790","category":"Other"},{"name":"SL-8 R/B","line1":"1 20775U 90078B   26107.26638017  .00009791  00000+0  28843-3 0  9997","line2":"2 20775  82.9060 216.5862 0356631 243.6789 112.7399 14.90103034815046","category":"Other"},{"name":"COSMOS 2151","line1":"1 21422U 91042A   26107.23587756  .00001317  00000+0  10294-3 0  9996","line2":"2 21422  82.4979  46.4861 0010740 293.1651  66.8441 15.00270360868971","category":"Other"},{"name":"USA 81","line1":"1 21949U 92023A   26107.08038033  .00000115  00000+0  35089-4 0  9997","line2":"2 21949  85.0035 109.2799 0001224  87.7923 272.3410 14.32380240100287","category":"Military"},{"name":"SL-14 R/B","line1":"1 21423U 91042B   26107.17944113  .00000239  00000+0  27143-4 0  9998","line2":"2 21423  82.4956 184.1015 0018494 113.0037 247.3130 14.81865848858777","category":"Other"}]}