[
    {
        "OBJECT_NAME": "COSMOS 2084",
        "OBJECT_ID": "1990-055A",
        "EPOCH": "2026-04-17T07:20:23.269632",
        "MEAN_MOTION": 15.05873162,
        "ECCENTRICITY": 0.00109777,
        "INCLINATION": 62.7891,
        "RA_OF_ASC_NODE": 203.8457,
        "ARG_OF_PERICENTER": 205.0184,
        "MEAN_ANOMALY": 155.0386,
        "EPHEMERIS_TYPE": 0,
        "CLASSIFICATION_TYPE": "U",
        "NORAD_CAT_ID": 20663,
        "ELEMENT_SET_NO": 999,
        "REV_AT_EPOCH": 94213,
        "BSTAR": 0.00010698791,
        "MEAN_MOTION_DOT": 1.36e-05,
        "MEAN_MOTION_DDOT": 0
    },
    {
        "OBJECT_NAME": "SL-6 R/B(2)",
        "OBJECT_ID": "1990-055D",
        "EPOCH": "2026-04-17T03:24:56.487744",
        "MEAN_MOTION": 15.03764781,
        "ECCENTRICITY": 0.00310548,
        "INCLINATION": 62.7805,
        "RA_OF_ASC_NODE": 123.0673,
        "ARG_OF_PERICENTER": 355.2562,
        "MEAN_ANOMALY": 4.8238,
        "EPHEMERIS_TYPE": 0,
        "CLASSIFICATION_TYPE": "U",
        "NORAD_CAT_ID": 20666,
        "ELEMENT_SET_NO": 999,
        "REV_AT_EPOCH": 94397,
        "BSTAR": 8.8730152e-05,
        "MEAN_MOTION_DOT": 1.031e-05,
        "MEAN_MOTION_DDOT": 0
    },
    {
        "OBJECT_NAME": "SL-8 R/B",
        "OBJECT_ID": "1990-078B",
        "EPOCH": "2026-04-17T06:23:35.246688",
        "MEAN_MOTION": 14.90103034,
        "ECCENTRICITY": 0.03566318,
        "INCLINATION": 82.906,
        "RA_OF_ASC_NODE": 216.5862,
        "ARG_OF_PERICENTER": 243.6789,
        "MEAN_ANOMALY": 112.7399,
        "EPHEMERIS_TYPE": 0,
        "CLASSIFICATION_TYPE": "U",
        "NORAD_CAT_ID": 20775,
        "ELEMENT_SET_NO": 999,
        "REV_AT_EPOCH": 81504,
        "BSTAR": 0.000288431,
        "MEAN_MOTION_DOT": 9.791e-05,
        "MEAN_MOTION_DDOT": 0
    },
    {
        "OBJECT_NAME": "SL-8 R/B",
        "OBJECT_ID": "1991-006B",
        "EPOCH": "2026-04-17T02:55:47.408736",
        "MEAN_MOTION": 13.77501755,
        "ECCENTRICITY": 0.00209727,
        "INCLINATION": 82.9411,
        "RA_OF_ASC_NODE": 141.4671,
        "ARG_OF_PERICENTER": 288.6639,
        "MEAN_ANOMALY": 134.5611,
        "EPHEMERIS_TYPE": 0,
        "CLASSIFICATION_TYPE": "U",
        "NORAD_CAT_ID": 21088,
        "ELEMENT_SET_NO": 999,
        "REV_AT_EPOCH": 76936,
        "BSTAR": 0.00013154561,
        "MEAN_MOTION_DOT": 1.46e-06,
        "MEAN_MOTION_DDOT": 0
    },
    {
        "OBJECT_NAME": "OKEAN-3",
        "OBJECT_ID": "1991-039A",
        "EPOCH": "2026-04-16T23:27:37.696896",
        "MEAN_MOTION": 15.05018163,
        "ECCENTRICITY": 0.00139296,
        "INCLINATION": 82.5136,
        "RA_OF_ASC_NODE": 299.735,
        "ARG_OF_PERICENTER": 193.9717,
        "MEAN_ANOMALY": 166.1127,
        "EPHEMERIS_TYPE": 0,
        "CLASSIFICATION_TYPE": "U",
        "NORAD_CAT_ID": 21397,
        "ELEMENT_SET_NO": 999,
        "REV_AT_EPOCH": 87079,
        "BSTAR": 8.4539918e-05,
        "MEAN_MOTION_DOT": 1.23e-05,
        "MEAN_MOTION_DDOT": 0
    },
    {
        "OBJECT_NAME": "COSMOS 2151",
        "OBJECT_ID": "1991-042A",
        "EPOCH": "2026-04-17T05:39:39.821184",
        "MEAN_MOTION": 15.0027036,
        "ECCENTRICITY": 0.00107405,
        "INCLINATION": 82.4979,
        "RA_OF_ASC_NODE": 46.4861,
        "ARG_OF_PERICENTER": 293.1651,
        "MEAN_ANOMALY": 66.8441,
        "EPHEMERIS_TYPE": 0,
        "CLASSIFICATION_TYPE": "U",
        "NORAD_CAT_ID": 21422,
        "ELEMENT_SET_NO": 999,
        "REV_AT_EPOCH": 86897,
        "BSTAR": 0.00010294436,
        "MEAN_MOTION_DOT": 1.317e-05,
        "MEAN_MOTION_DDOT": 0
    },
    {
        "OBJECT_NAME": "SL-14 R/B",
        "OBJECT_ID": "1991-042B",
        "EPOCH": "2026-04-17T04:18:23.713632",
        "MEAN_MOTION": 14.81865848,
        "ECCENTRICITY": 0.00184945,
        "INCLINATION": 82.4956,
        "RA_OF_ASC_NODE": 184.1015,
        "ARG_OF_PERICENTER": 113.0037,
        "MEAN_ANOMALY": 247.313,
        "EPHEMERIS_TYPE": 0,
        "CLASSIFICATION_TYPE": "U",
        "NORAD_CAT_ID": 21423,
        "ELEMENT_SET_NO": 999,
        "REV_AT_EPOCH": 85877,
        "BSTAR": 2.7143299e-05,
        "MEAN_MOTION_DOT": 2.39e-06,
        "MEAN_MOTION_DDOT": 0
    },
    {
        "OBJECT_NAME": "ERS-1",
        "OBJECT_ID": "1991-050A",
        "EPOCH": "2026-04-17T01:36:28.067328",
        "MEAN_MOTION": 14.39478181,
        "ECCENTRICITY": 0.00331418,
        "INCLINATION": 98.7846,
        "RA_OF_ASC_NODE": 126.2616,
        "ARG_OF_PERICENTER": 88.6979,
        "MEAN_ANOMALY": 271.8005,
        "EPHEMERIS_TYPE": 0,
        "CLASSIFICATION_TYPE": "U",
        "NORAD_CAT_ID": 21574,
        "ELEMENT_SET_NO": 999,
        "REV_AT_EPOCH": 82125,
        "BSTAR": 7.0028756e-05,
        "MEAN_MOTION_DOT": 1.73e-06,
        "MEAN_MOTION_DDOT": 0
    },
    {
        "OBJECT_NAME": "ARIANE 40 R/B",
        "OBJECT_ID": "1991-050F",
        "EPOCH": "2026-04-17T02:18:17.316000",
        "MEAN_MOTION": 14.42920774,
        "ECCENTRICITY": 0.00022767,
        "INCLINATION": 98.1938,
        "RA_OF_ASC_NODE": 157.8761,
        "ARG_OF_PERICENTER": 340.7491,
        "MEAN_ANOMALY": 19.3613,
        "EPHEMERIS_TYPE": 0,
        "CLASSIFICATION_TYPE": "U",
        "NORAD_CAT_ID": 21610,
        "ELEMENT_SET_NO": 999,
        "REV_AT_EPOCH": 82453,
        "BSTAR": 5.8471962e-05,
        "MEAN_MOTION_DOT": 1.54e-06,
        "MEAN_MOTION_DDOT": 0
    },
    {
        "OBJECT_NAME": "INTERCOSMOS 25",
        "OBJECT_ID": "1991-086A",
        "EPOCH": "2026-04-16T22:57:48.174912",
        "MEAN_MOTION": 12.12117391,
        "ECCENTRICITY": 0.14858767,
        "INCLINATION": 82.5991,
        "RA_OF_ASC_NODE": 286.8654,
        "ARG_OF_PERICENTER": 34.4682,
        "MEAN_ANOMALY": 334.4263,
        "EPHEMERIS_TYPE": 0,
        "CLASSIFICATION_TYPE": "U",
        "NORAD_CAT_ID": 21819,
        "ELEMENT_SET_NO": 999,
        "REV_AT_EPOCH": 50132,
        "BSTAR": 0.00016291889,
        "MEAN_MOTION_DOT": 8.56e-06,
        "MEAN_MOTION_DDOT": 0
    },
    {
        "OBJECT_NAME": "SL-8 R/B",
        "OBJECT_ID": "1992-008B",
        "EPOCH": "2026-04-16T16:04:45.012288",
        "MEAN_MOTION": 13.75970147,
        "ECCENTRICITY": 0.00351973,
        "INCLINATION": 82.9264,
        "RA_OF_ASC_NODE": 239.5217,
        "ARG_OF_PERICENTER": 30.6728,
        "MEAN_ANOMALY": 340.3263,
        "EPHEMERIS_TYPE": 0,
        "CLASSIFICATION_TYPE": "U",
        "NORAD_CAT_ID": 21876,
        "ELEMENT_SET_NO": 999,
        "REV_AT_EPOCH": 71464,
        "BSTAR": -1.0373144e-05,
        "MEAN_MOTION_DOT": 5e-08,
        "MEAN_MOTION_DDOT": 0
    },
    {
        "OBJECT_NAME": "SL-8 R/B",
        "OBJECT_ID": "1992-020B",
        "EPOCH": "2026-04-17T04:09:17.548992",
        "MEAN_MOTION": 13.75549523,
        "ECCENTRICITY": 0.00288284,
        "INCLINATION": 82.9274,
        "RA_OF_ASC_NODE": 125.1815,
        "ARG_OF_PERICENTER": 187.5589,
        "MEAN_ANOMALY": 242.8,
        "EPHEMERIS_TYPE": 0,
        "CLASSIFICATION_TYPE": "U",
        "NORAD_CAT_ID": 21938,
        "ELEMENT_SET_NO": 999,
        "REV_AT_EPOCH": 70642,
        "BSTAR": -5.6555619e-05,
        "MEAN_MOTION_DOT": -3.9e-07,
        "MEAN_MOTION_DDOT": 0
    },
    {
        "OBJECT_NAME": "USA 81",
        "OBJECT_ID": "1992-023A",
        "EPOCH": "2026-04-17T01:55:44.860512",
        "MEAN_MOTION": 14.3238024,
        "ECCENTRICITY": 0.00012246,
        "INCLINATION": 85.0035,
        "RA_OF_ASC_NODE": 109.2799,
        "ARG_OF_PERICENTER": 87.7923,
        "MEAN_ANOMALY": 272.341,
        "EPHEMERIS_TYPE": 0,
        "CLASSIFICATION_TYPE": "U",
        "NORAD_CAT_ID": 21949,
        "ELEMENT_SET_NO": 999,
        "REV_AT_EPOCH": 10028,
        "BSTAR": 3.5089257e-05,
        "MEAN_MOTION_DOT": 1.15e-06,
        "MEAN_MOTION_DDOT": 0
    }
]